ORBVIEW 2 (SEASTAR)     
1 24883U 97037A   12289.85154895  .00000364  00000-0  14999-3 0  8591
2 24883  98.4308  44.9971 0003128 106.1878 253.9650 14.32522725807679
METEOSAT-7              
1 24932U 97049B   12289.68602002  .00000059  00000-0  00000+0 0  3206
2 24932   7.9412  54.9669 0002593 205.3534  68.7642  1.00269902 55388
NOAA 15                 
1 25338U 98030A   12289.18602564  .00000149  00000-0  82276-4 0  4397
2 25338  98.7020 275.0387 0011443 116.6016 243.6327 14.25130461749942
NOAA 16                 
1 26536U 00055A   12290.14313382 -.00000024  00000-0  11598-4 0  9312
2 26536  99.0814 334.0548 0011354 102.0795 258.1651 14.12791361622115
GOES 12                 
1 26871U 01031A   12289.23678487 -.00000288  00000-0  10000-3 0  7661
2 26871   2.5210  71.6931 0003236 144.8587 193.2052  1.00265811 41195
FENGYUN 1D              
1 27431U 02024B   12290.01752586  .00000145  00000-0  10773-3 0  5934
2 27431  98.7807 253.6088 0014740 207.1897 152.8510 14.09375020536209
NOAA 17                 
1 27453U 02032A   12289.27645705  .00000069  00000-0  47185-4 0  8731
2 27453  98.3291 310.2054 0012001 159.7942 200.3712 14.24493075535851
METEOSAT-8 (MSG-1)      
1 27509U 02040B   12289.14242647  .00000057  00000-0  00000+0 0   656
2 27509   1.6104  61.2171 0000488  87.0425 296.2921  1.00271973 37192
KALPANA-1 (METSAT 1)    
1 27525U 02043A   12287.97651366 -.00000081  00000-0  10000-3 0  5612
2 27525   3.1198  69.1647 0005446 179.0675 200.2584  1.00272856 36980
INSAT-3A                
1 27714U 03013A   12289.83534017 -.00000265  00000-0  10000-3 0  3511
2 27714   0.0740  87.2553 0005361 146.8743 184.8663  1.00272002 34908
FENGYUN 2C              
1 28451U 04042A   12289.79910980 -.00000362  00000-0  10000-3 0  5212
2 28451   4.2274  64.8731 0001124 115.1160 256.0745  1.00274921 29256
HIMAWARI-6 (MTSAT-1R)   
1 28622U 05006A   12289.86858280 -.00000287  00000-0  10000-3 0  7640
2 28622   0.0445 333.5410 0001442 359.1605 144.8478  1.00270991 27952
NOAA 18                 
1 28654U 05018A   12289.34306053 -.00000078  00000-0 -17611-4 0  3547
2 28654  99.0622 248.5239 0014150 173.5414 186.5957 14.11712832381513
METEOSAT-9 (MSG-2)      
1 28912U 05049B   12289.13795066 -.00000011  00000-0  10000-3 0  2405
2 28912   0.4008 328.1793 0003452 160.0213 305.5854  1.00264958 25042
MTSAT-2                 
1 28937U 06004A   12288.85918750 -.00000248  00000-0  10000-3 0  2579
2 28937   0.0364 260.5688 0002311 309.5250 268.0755  1.00272616 24420
FORMOSAT-3 FM6          
1 29047U 06011A   12288.91497492  .00000296  00000-0  13546-3 0  9265
2 29047  71.9786  66.2061 0052334 213.5863 146.1970 14.27527959341184
FORMOSAT-3 FM1          
1 29048U 06011B   12289.34807736  .00000393  00000-0  17471-3 0    79
2 29048  71.9723 339.3642 0044622 166.3272 193.9061 14.27537378343724
FORMOSAT-3 FM5          
1 29049U 06011C   12290.05576828  .00000364  00000-0  16364-3 0  9498
2 29049  72.0179 133.7842 0036385 216.2348 143.6320 14.27549964339602
FORMOSAT-3 FM3          
1 29050U 06011D   12290.14308232  .00001134  00000-0  26646-3 0  2743
2 29050  72.0179 199.4540 0052543   6.1592 354.0195 14.55480569348197
FORMOSAT-3 FM4          
1 29051U 06011E   12289.80991427  .00000376  00000-0  16522-3 0    27
2 29051  72.0065  41.2346 0067742  86.6354 274.2532 14.27552860342157
FORMOSAT-3 FM2          
1 29052U 06011F   12289.48751168  .00000363  00000-0  16273-3 0   229
2 29052  72.0330 107.7966 0041213 184.2547 175.8245 14.27599698340417
GOES 13                 
1 29155U 06018A   12289.36787104 -.00000253  00000-0  10000-3 0  2588
2 29155   0.1321 114.1847 0002642  35.6361 291.7019  1.00261876 23459
METOP-A                 
1 29499U 06044A   12289.06865830  .00000195  00000-0  10889-3 0  8640
2 29499  98.6868 346.5320 0001908  66.1490 293.9933 14.21502516310758
FENGYUN 2D              
1 29640U 06053A   12289.98685750 -.00000203  00000-0  10000-3 0  5328
2 29640   2.6238  73.5242 0000844  71.0596 322.1454  1.00266058 21508
FENGYUN 3A              
1 32958U 08026A   12290.06288649  .00000063  00000-0  50485-4 0  3270
2 32958  98.6394 355.7105 0009522 170.0045 190.1323 14.19301329227439
NOAA 19                 
1 33591U 09005A   12289.30711152  .00000464  00000-0  28052-3 0  5425
2 33591  98.8740 227.6589 0014803  44.0488 316.1866 14.11401673189953
GOES 14                 
1 35491U 09033A   12289.52802682 -.00000201  00000-0  10000-3 0  6694
2 35491   0.3255 262.1723 0009845  64.6968 154.6331  1.00520090 12123
METEOR-M 1              
1 35865U 09049A   12290.04459479 -.00000027  00000-0  74856-5 0  8731
2 35865  98.6404 342.0140 0003381  65.3789 294.7740 14.21871050159778
GOES 15                 
1 36411U 10008A   12289.49064400  .00000083  00000-0  10000-3 0  2700
2 36411   0.3236 262.0151 0002531 275.2678 248.4179  1.00274878  9625
COMS 1                  
1 36744U 10032A   12289.80917654 -.00000351  00000-0  10000-3 0  4632
2 36744   0.0515  40.7281 0000541 212.0810 191.4838  1.00270733  8592
FENGYUN 3B              
1 37214U 10059A   12290.15577231  .00000093  00000-0  65366-4 0  1485
2 37214  98.7711 230.8657 0001995  62.3779 297.7600 14.19283411100940
ELEKTRO-L 1 (GOMS 2)    
1 37344U 11001A   12289.79534574 -.00000104  00000-0  10000-3 0  4535
2 37344   0.0500 320.7147 0002346 212.1276 214.2527  1.00273015  6422
SUOMI NPP               
1 37849U 11061A   12289.62691574  .00000015  00000-0  27786-4 0  3132
2 37849  98.7247 225.3020 0001395  64.5988 295.5325 14.19536488 50120
FENGYUN 2F              
1 38049U 12002A   12289.85722590 -.00000365  00000-0  10000-3 0  2058
2 38049   1.8042 277.4168 0003719 247.5103 280.4138  1.00265792  2839
METOP-B                 
1 38771U 12049A   12289.73804673 -.00000080  00000-0 -16630-4 0   353
2 38771  98.7402 347.0475 0002788 145.0095 215.1254 14.21472141  3984
